NORAD_CAT_ID,OBJECT_NAME,OBJECT_TYPE,EPOCH,MEAN_MOTION,ECCENTRICITY,INCLINATION,RA_OF_ASC_NODE,ARG_OF_PERICENTER,MEAN_ANOMALY,BSTAR,MEAN_MOTION_DOT,MEAN_MOTION_DDOT,TLE_LINE0,TLE_LINE1,TLE_LINE2,SEMIMAJOR_AXIS,PERIOD,APOGEE,PERIGEE,DECAYED
52132.0,STARLINK-3718,PAYLOAD,2024-06-27 03:29:31,15.08839428,0.0001416,53.2166,334.8555,79.5624,280.5528,7.522e-05,9.09e-06,0.0,0 STARLINK-3718,1 52132U 22029AW  24179.14549895  .00000909  00000-0  75220-4 0  9994,2 52132  53.2166 334.8555 0001416  79.5624 280.5528 15.08839428127251,6917.882,95.438,540.727,538.768,0.0
52132.0,STARLINK-3718,PAYLOAD,2024-06-27 17:47:59,15.08843935,9.77e-05,53.2156,332.1792,95.2349,264.8755,-1.5119e-05,-5.28e-06,0.0,0 STARLINK-3718,1 52132U 22029AW  24179.74165548 -.00000528  00000-0 -15119-4 0  9999,2 52132  53.2156 332.1792 0000977  95.2349 264.8755 15.08843935127349,6917.868,95.437,540.409,539.057,0.0
52132.0,STARLINK-3718,PAYLOAD,2024-06-28 14:28:00,15.08842865,9.92e-05,53.2153,328.3097,115.5241,244.5854,0.00019609,2.835e-05,0.0,0 STARLINK-3718,1 52132U 22029AW  24180.60277840  .00002835  00000-0  19609-3 0  9993,2 52132  53.2153 328.3097 0000992 115.5241 244.5854 15.08842865127475,6917.872,95.437,540.423,539.05,0.0
52132.0,STARLINK-3718,PAYLOAD,2024-06-28 17:38:46,15.08850041,0.0001133,53.2154,327.7182,85.3959,274.7163,0.00050051,7.689e-05,0.0,0 STARLINK-3718,1 52132U 22029AW  24180.73525615  .00007689  00000-0  50051-3 0  9991,2 52132  53.2154 327.7182 0001133  85.3959 274.7163 15.08850041127497,6917.85,95.437,540.498,538.931,0.0
52132.0,STARLINK-3718,PAYLOAD,2024-06-29 09:32:38,15.08828753,0.0001804,53.2143,324.7448,94.0718,266.048,-0.00010137,-1.901e-05,0.0,0 STARLINK-3718,1 52132U 22029AW  24181.39766422 -.00001901  00000-0 -10137-3 0  9991,2 52132  53.2143 324.7448 0001804  94.0718 266.0480 15.08828753127594,6917.915,95.438,541.028,538.532,0.0
52132.0,STARLINK-3718,PAYLOAD,2024-06-29 14:18:47,15.08823875,0.0001417,53.2143,323.8529,99.4513,260.6639,-0.0001959,-3.403e-05,0.0,0 STARLINK-3718,1 52132U 22029AW  24181.59638641 -.00003403  00000-0 -19590-3 0  9995,2 52132  53.2143 323.8529 0001417  99.4513 260.6639 15.08823875127626,6917.93,95.439,540.775,538.814,0.0
52132.0,STARLINK-3718,PAYLOAD,2024-06-29 15:54:10,15.08827083,0.0001517,53.215,323.5543,112.6717,247.4436,-0.00020131,-3.489e-05,0.0,0 STARLINK-3718,1 52132U 22029AW  24181.66262515 -.00003489  00000-0 -20131-3 0  9993,2 52132  53.2150 323.5543 0001517 112.6717 247.4436 15.08827083127636,6917.92,95.438,540.834,538.735,0.0
52132.0,STARLINK-3718,PAYLOAD,2024-06-30 09:23:25,15.08843142,0.0001453,53.2148,320.282,119.7003,240.4134,0.00020995,3.055e-05,0.0,0 STARLINK-3718,1 52132U 22029AW  24182.39126227  .00003055  00000-0  20995-3 0  9998,2 52132  53.2148 320.2820 0001453 119.7003 240.4134 15.08843142127744,6917.871,95.437,540.741,538.731,0.0
52132.0,STARLINK-3718,PAYLOAD,2024-06-30 14:09:34,15.08848429,0.0001483,53.2152,319.391,116.8911,243.2232,0.00080021,0.00012473,0.0,0 STARLINK-3718,1 52132U 22029AW  24182.58998413  .00012473  00000-0  80021-3 0  9993,2 52132  53.2152 319.3910 0001483 116.8911 243.2232 15.08848429127773,6917.855,95.437,540.746,538.694,0.0
52132.0,STARLINK-3718,PAYLOAD,2024-06-30 15:44:57,15.08856618,0.0001458,53.2165,319.0951,105.883,254.2323,0.0013246,0.00020865,0.0,0 STARLINK-3718,1 52132U 22029AW  24182.65622526  .00020865  00000-0  13246-2 0  9998,2 52132  53.2165 319.0951 0001458 105.8830 254.2323 15.08856618127782,6917.83,95.437,540.703,538.686,0.0
52132.0,STARLINK-3718,PAYLOAD,2024-07-01 12:24:58,15.08836753,9.64e-05,53.2168,315.2295,71.3811,288.7286,0.00066881,0.00010371,0.0,0 STARLINK-3718,1 52132U 22029AW  24183.51734261  .00010371  00000-0  66881-3 0  9999,2 52132  53.2168 315.2295 0000964  71.3811 288.7286 15.08836753127914,6917.89,95.438,540.422,539.088,0.0
52132.0,STARLINK-3718,PAYLOAD,2024-07-01 14:00:21,15.08837211,0.0001026,53.2153,314.9304,73.0161,287.0943,0.0008928,0.00013948,0.0,0 STARLINK-3718,1 52132U 22029AW  24183.58358246  .00013948  00000-0  89280-3 0  9992,2 52132  53.2153 314.9304 0001026  73.0161 287.0943 15.08837211127925,6917.889,95.438,540.464,539.044,0.0
52132.0,STARLINK-3718,PAYLOAD,2024-07-01 15:35:44,15.08837621,0.0001061,53.216,314.634,71.4471,288.6636,0.0010838,0.00017002,0.0,0 STARLINK-3718,1 52132U 22029AW  24183.64982294  .00017002  00000-0  10838-2 0  9992,2 52132  53.2160 314.6340 0001061  71.4471 288.6636 15.08837621127937,6917.888,95.438,540.487,539.019,0.0
52132.0,STARLINK-3718,PAYLOAD,2024-07-02 12:15:45,15.08841183,0.0001087,53.2148,310.7671,63.8241,296.2863,0.00083136,0.00012968,0.0,0 STARLINK-3718,1 52132U 22029AW  24184.51094754  .00012968  00000-0  83136-3 0  9992,2 52132  53.2148 310.7671 0001087  63.8241 296.2863 15.08841183128065,6917.877,95.437,540.494,538.99,0.0
52132.0,STARLINK-3718,PAYLOAD,2024-07-02 13:51:08,15.08840004,0.0001058,53.2151,310.4685,64.4488,295.6613,0.00042669,6.509e-05,0.0,0 STARLINK-3718,1 52132U 22029AW  24184.57718722  .00006509  00000-0  42669-3 0  9996,2 52132  53.2151 310.4685 0001058  64.4488 295.6613 15.08840004128077,6917.88,95.438,540.477,539.013,0.0
52132.0,STARLINK-3718,PAYLOAD,2024-07-02 15:26:32,15.08835118,0.0001064,53.2148,310.1704,63.9456,296.1646,0.00020296,2.943e-05,0.0,0 STARLINK-3718,1 52132U 22029AW  24184.64342745  .00002943  00000-0  20296-3 0  9992,2 52132  53.2148 310.1704 0001064  63.9456 296.1646 15.08835118128081,6917.895,95.438,540.496,539.024,0.0
52132.0,STARLINK-3718,PAYLOAD,2024-07-03 12:06:30,15.08874228,0.0001062,53.2149,306.3053,54.4655,305.6436,0.00063877,9.902e-05,0.0,0 STARLINK-3718,1 52132U 22029AW  24185.50452403  .00009902  00000-0  63877-3 0  9995,2 52132  53.2149 306.3053 0001062  54.4655 305.6436 15.08874228128213,6917.776,95.435,540.375,538.906,0.0
52132.0,STARLINK-3718,PAYLOAD,2024-07-03 16:52:40,15.08846464,0.0001152,53.2153,305.4142,67.3497,292.7617,-4.2108e-05,-9.58e-06,0.0,0 STARLINK-3718,1 52132U 22029AW  24185.70324691 -.00000958  00000-0 -42108-4 0  9993,2 52132  53.2153 305.4142 0001152  67.3497 292.7617 15.08846464128245,6917.861,95.437,540.523,538.929,0.0
52132.0,STARLINK-3718,PAYLOAD,2024-07-04 11:57:20,15.08818184,0.0001365,53.2158,301.8456,79.0423,281.0722,-0.00031906,-5.359e-05,0.0,0 STARLINK-3718,1 52132U 22029AW  24186.49814958 -.00005359  00000-0 -31906-3 0  9993,2 52132  53.2158 301.8456 0001365  79.0423 281.0722 15.08818184128362,6917.947,95.439,540.756,538.868,0.0
52132.0,STARLINK-3718,PAYLOAD,2024-07-04 13:32:43,15.08817399,0.0001183,53.2163,301.5493,83.5139,276.5988,-0.00031896,-5.357e-05,0.0,0 STARLINK-3718,1 52132U 22029AW  24186.56439032 -.00005357  00000-0 -31896-3 0  9993,2 52132  53.2163 301.5493 0001183  83.5139 276.5988 15.08817399128379,6917.949,95.439,540.633,538.996,0.0
52132.0,STARLINK-3718,PAYLOAD,2024-07-04 16:43:29,15.0882832,9.34e-05,53.2159,300.9519,86.5237,273.5862,-0.00019298,-3.357e-05,0.0,0 STARLINK-3718,1 52132U 22029AW  24186.69686447 -.00003357  00000-0 -19298-3 0  9991,2 52132  53.2159 300.9519 0000934  86.5237 273.5862 15.08828320128397,6917.916,95.438,540.427,539.135,0.0
52132.0,STARLINK-3718,PAYLOAD,2024-07-05 00:40:24,15.08837363,0.0001266,53.2172,299.4686,82.1916,277.922,-1.7067e-05,-5.59e-06,0.0,0 STARLINK-3718,1 52132U 22029AW  24187.02806313 -.00000559  00000-0 -17067-4 0  9999,2 52132  53.2172 299.4686 0001266  82.1916 277.9220 15.08837363128443,6917.888,95.438,540.629,538.878,0.0
52132.0,STARLINK-3718,PAYLOAD,2024-07-05 13:23:30,15.08835303,0.0001419,53.2168,297.0914,87.8282,272.2873,0.00073634,0.00011449,0.0,0 STARLINK-3718,1 52132U 22029AW  24187.55798904  .00011449  00000-0  73634-3 0  9992,2 52132  53.2168 297.0914 0001419  87.8282 272.2873 15.08835303128527,6917.895,95.438,540.741,538.778,0.0
52132.0,STARLINK-3718,PAYLOAD,2024-07-05 14:58:53,15.08837167,0.0001272,53.2159,296.7935,90.9658,269.148,0.0010635,0.00016677,0.0,0 STARLINK-3718,1 52132U 22029AW  24187.62422885  .00016677  00000-0  10635-2 0  9991,2 52132  53.2159 296.7935 0001272  90.9658 269.1480 15.08837167128535,6917.889,95.438,540.634,538.874,0.0
52132.0,STARLINK-3718,PAYLOAD,2024-07-06 00:31:11,15.08855754,0.0001195,53.2149,295.0081,86.0111,274.1018,0.0010381,0.00016279,0.0,0 STARLINK-3718,1 52132U 22029AW  24188.02166485  .00016279  00000-0  10381-2 0  9993,2 52132  53.2149 295.0081 0001195  86.0111 274.1018 15.08855754128593,6917.832,95.437,540.524,538.871,0.0
52132.0,STARLINK-3718,PAYLOAD,2024-07-06 11:38:54,15.08836823,0.000139,53.2164,292.9257,91.4572,268.6579,0.00022418,3.281e-05,0.0,0 STARLINK-3718,1 52132U 22029AW  24188.48534973  .00003281  00000-0  22418-3 0  9998,2 52132  53.2164 292.9257 0001390  91.4572 268.6579 15.08836823128663,6917.89,95.438,540.717,538.794,0.0
52132.0,STARLINK-3718,PAYLOAD,2024-07-06 13:14:17,15.0882784,0.0001582,53.216,292.6323,79.4518,280.6652,0.00056545,8.72e-05,0.0,0 STARLINK-3718,1 52132U 22029AW  24188.55159259  .00008720  00000-0  56545-3 0  9997,2 52132  53.2160 292.6323 0001582  79.4518 280.6652 15.08827840128675,6917.918,95.438,540.877,538.688,0.0
52132.0,STARLINK-3718,PAYLOAD,2024-07-06 16:25:03,15.08840456,0.0001314,53.2154,292.0329,93.8849,266.2293,0.00044594,6.816e-05,0.0,0 STARLINK-3718,1 52132U 22029AW  24188.68406973  .00006816  00000-0  44594-3 0  9994,2 52132  53.2154 292.0329 0001314  93.8849 266.2293 15.08840456128699,6917.879,95.438,540.653,538.835,0.0
52132.0,STARLINK-3718,PAYLOAD,2024-07-07 00:21:59,15.08847055,0.0001385,53.2153,290.5476,86.5568,273.5582,0.0011326,0.00017787,0.0,0 STARLINK-3718,1 52132U 22029AW  24189.01527114  .00017787  00000-0  11326-2 0  9998,2 52132  53.2153 290.5476 0001385  86.5568 273.5582 15.08847055128749,6917.859,95.437,540.682,538.766,0.0
52132.0,STARLINK-3718,PAYLOAD,2024-07-08 12:55:51,15.08842923,0.0001539,53.2168,283.7087,99.2688,260.8478,0.00021427,3.124e-05,0.0,0 STARLINK-3718,1 52132U 22029AW  24190.53879399  .00003124  00000-0  21427-3 0  9996,2 52132  53.2168 283.7087 0001539  99.2688 260.8478 15.08842923128979,6917.871,95.437,540.801,538.672,0.0
